MEAN_MOTION;ECCENTRICITY;INCLINATION;RA_OF_ASC_NODE;ARG_OF_PERICENTER;MEAN_ANOMALY;BSTAR;MEAN_MOTION_DOT;MEAN_MOTION_DDOT;TYPE
14.32797669;0.0001177;45.009;232.4275;127.536;232.5594;4.4706E-5;-1.8E-7;0;Orbcomm
14.3279786;0.0001223;45.0092;228.1666;136.373;223.7213;4.2139E-5;-2.5E-7;0;Orbcomm
14.32797878;0.0001227;45.0092;227.8388;136.8923;223.202;4.227E-5;-2.4E-7;0;Orbcomm
14.32798154;0.000129;45.0092;223.2501;145.4226;214.6704;4.5036E-5;-1.7E-7;0;Orbcomm
14.32798171;0.0001294;45.0092;222.9224;146.02;214.0729;4.4945E-5;-1.7E-7;0;Orbcomm
14.32798311;0.0001339;45.0092;219.9725;151.2485;208.8435;4.5003E-5;-1.7E-7;0;Orbcomm
14.32798483;0.0001412;45.0092;215.7115;158.277;201.8137;4.5137E-5;-1.6E-7;0;Orbcomm
14.32798534;0.0001436;45.0092;214.4006;160.129;199.9612;4.4868E-5;-1.7E-7;0;Orbcomm
14.32798775;0.0001508;45.0092;209.4843;166.7083;193.3803;4.4544E-5;-1.8E-7;0;Orbcomm
14.32798945;0.0001567;45.0091;206.2066;171.4449;188.6424;4.333E-5;-2.1E-7;0;Orbcomm
14.32799123;0.0001668;45.0092;201.6178;177.9734;182.1119;4.0416E-5;-2.9E-7;0;Orbcomm
14.32799255;0.0001723;45.0093;198.3403;182.2958;177.788;3.8137E-5;-3.6E-7;0;Orbcomm
14.32799478;0.0001814;45.0094;193.4239;187.871;172.2108;3.8199E-5;-3.6E-7;0;Orbcomm
14.32799642;0.0001871;45.0094;190.4741;190.5295;169.5512;4.037E-5;-3.0E-7;0;Orbcomm
14.32799877;0.0001932;45.0095;187.1965;194.2196;165.8596;4.5148E-5;-1.6E-7;0;Orbcomm
14.32800004;0.0001943;45.0094;185.8855;195.5197;164.559;5.0151E-5;-3.0E-8;0;Orbcomm
14.32800365;0.0002011;45.0095;182.2803;199.5426;160.5343;6.2452E-5;3.1E-7;0;Orbcomm
14.32800811;0.0002094;45.0095;177.6917;204.0619;156.013;7.2043E-5;5.8E-7;0;Orbcomm
14.32801055;0.000214;45.0095;174.7419;207.2013;152.8721;7.3708E-5;6.2E-7;0;Orbcomm
14.32801362;0.0002172;45.0094;172.7754;208.9161;151.1565;8.4245E-5;9.1E-7;0;Orbcomm
14.32801684;0.0002244;45.0094;168.5145;212.978;147.0926;7.7508E-5;7.3E-7;0;Orbcomm
14.32801689;0.0002247;45.0093;168.1868;213.3238;146.7467;7.6156E-5;6.9E-7;0;Orbcomm
14.32801971;0.0002318;45.0092;163.5982;217.4171;142.6514;6.6198E-5;4.1E-7;0;Orbcomm
14.32802045;0.0002326;45.0092;162.615;218.5584;141.5096;6.4609E-5;3.7E-7;0;Orbcomm
14.32802341;0.0002386;45.0092;158.0264;222.5901;137.4761;5.7117E-5;1.7E-7;0;Orbcomm
14.32802623;0.000244;45.0091;154.421;225.7803;134.2843;5.7686E-5;1.8E-7;0;Orbcomm
14.32802922;0.0002486;45.0091;151.1433;228.7723;131.291;6.2578E-5;3.2E-7;0;Orbcomm
14.32803245;0.0002506;45.0091;149.1768;230.4355;129.627;7.3405E-5;6.1E-7;0;Orbcomm
14.32803828;0.0002563;45.0091;144.9158;234.1747;125.8861;9.1007E-5;1.1E-6;0;Orbcomm
14.32804158;0.0002603;45.009;141.6381;237.1124;122.9472;9.3387E-5;1.16E-6;0;Orbcomm
14.32804401;0.0002612;45.009;139.9993;238.3052;121.7539;9.7781E-5;1.28E-6;0;Orbcomm
14.32804708;0.0002648;45.009;137.0493;240.8555;119.2026;9.7876E-5;1.29E-6;0;Orbcomm
14.32805106;0.0002679;45.009;133.444;243.9583;116.0988;9.6991E-5;1.26E-6;0;Orbcomm
14.32805256;0.0002688;45.009;132.1329;244.8135;115.2432;9.5874E-5;1.23E-6;0;Orbcomm
14.32805455;0.0002692;45.009;130.4942;246.207;113.8494;9.4045E-5;1.18E-6;0;Orbcomm
14.32805615;0.0002707;45.009;128.8553;247.6694;112.3866;9.0765E-5;1.09E-6;0;Orbcomm
14.32806214;0.0002735;45.009;123.9389;251.8894;108.1655;8.5713E-5;9.5E-7;0;Orbcomm
14.32806348;0.000274;45.009;122.9556;252.635;107.4197;8.4729E-5;9.2E-7;0;Orbcomm
14.32806838;0.0002762;45.009;119.3502;255.5322;104.5218;8.3914E-5;9.0E-7;0;Orbcomm
14.32807259;0.0002766;45.009;116.7281;257.6704;102.3832;8.6465E-5;9.7E-7;0;Orbcomm
14.32807521;0.0002782;45.009;114.7614;259.2256;100.8277;8.6751E-5;9.8E-7;0;Orbcomm
14.32808058;0.0002789;45.009;111.8114;261.3547;98.6984;9.0613E-5;1.09E-6;0;Orbcomm
14.32808265;0.0002799;45.0091;110.1725;262.7369;97.3159;9.1893E-5;1.12E-6;0;Orbcomm
14.32808977;0.0002803;45.0092;105.256;267.0419;93.0106;9.7707E-5;1.28E-6;0;Orbcomm
14.32809125;0.00028;45.0092;103.9448;268.0694;91.9831;9.7596E-5;1.28E-6;0;Orbcomm
14.32809358;0.0002793;45.0092;102.6338;269.1252;90.9274;0.00010031;1.35E-6;0;Orbcomm
14.32809914;0.0002789;45.0093;98.3727;272.467;87.5856;0.00010202;1.4E-6;0;Orbcomm
14.32810151;0.0002786;45.0094;95.7504;274.6997;85.3531;9.8668E-5;1.31E-6;0;Orbcomm
14.32810507;0.0002773;45.0094;93.4561;276.3041;83.7489;9.7143E-5;1.27E-6;0;Orbcomm
14.32811358;0.0002743;45.0097;86.5729;281.8599;78.1939;9.0523E-5;1.08E-6;0;Orbcomm
14.32811964;0.0002718;45.0099;81.6565;285.5401;74.5145;8.3729E-5;9.0E-7;0;Orbcomm
14.32812519;0.0002672;45.0101;77.0678;289.4198;70.636;8.1431E-5;8.3E-7;0;Orbcomm
14.32812886;0.0002655;45.0102;74.7736;291.2089;68.8474;8.2356E-5;8.6E-7;0;Orbcomm
14.32813346;0.0002609;45.0103;70.1849;294.9501;65.1074;8.0779E-5;8.2E-7;0;Orbcomm
14.32813592;0.0002588;45.0104;67.5628;296.8734;63.1847;8.0648E-5;8.1E-7;0;Orbcomm
14.32813926;0.0002534;45.0105;63.3019;300.4499;59.6097;8.1411E-5;8.3E-7;0;Orbcomm
14.32813953;0.0002528;45.0105;62.9741;300.6219;59.4377;8.1097E-5;8.2E-7;0;Orbcomm
14.32814179;0.000246;45.0106;58.3855;304.7502;55.3113;7.5579E-5;6.7E-7;0;Orbcomm
14.32814282;0.0002436;45.0106;56.419;306.3457;53.7165;7.2513E-5;5.9E-7;0;Orbcomm
14.32814559;0.0002378;45.0108;52.4859;309.5081;50.5555;6.9738E-5;5.1E-7;0;Orbcomm
14.32814578;0.0002376;45.0108;51.8304;310.0507;50.0131;6.7624E-5;4.5E-7;0;Orbcomm
14.32814812;0.0002306;45.011;47.5696;313.7139;46.3516;6.1222E-5;2.8E-7;0;Orbcomm
14.32814819;0.0002305;45.011;47.2418;313.9639;46.1017;5.9918E-5;2.4E-7;0;Orbcomm
14.32815034;0.0002221;45.0112;42.3256;318.3246;41.7431;5.1195E-5;0;0;Orbcomm
14.32815247;0.0002105;45.0113;34.7873;324.7421;35.3285;3.8247E-5;-3.5E-7;0;Orbcomm
14.32815195;0.0002083;45.0114;33.8041;325.7984;34.2728;3.4635E-5;-4.5E-7;0;Orbcomm
14.32815298;0.0002028;45.0114;30.1989;328.9935;31.0792;3.3369E-5;-4.9E-7;0;Orbcomm
14.32815293;0.0001997;45.0115;28.888;330.4495;29.6238;3.1926E-5;-5.3E-7;0;Orbcomm
14.32815538;0.0001899;45.0114;23.9717;335.1988;24.8766;3.7493E-5;-3.7E-7;0;Orbcomm
14.32815648;0.0001836;45.0114;20.6942;338.3995;21.6774;3.8072E-5;-3.6E-7;0;Orbcomm
14.32816132;0.0001753;45.0114;16.4333;342.357;17.7215;5.1025E-5;0;0;Orbcomm
14.32816592;0.0001652;45.0112;11.8448;346.9992;13.0811;5.8892E-5;2.1E-7;0;Orbcomm
14.32816741;0.0001634;45.0112;10.534;348.404;11.6768;6.2133E-5;3.0E-7;0;Orbcomm
14.32817091;0.0001552;45.0112;6.6008;352.4256;7.6567;6.2055E-5;3.0E-7;0;Orbcomm
14.32817426;0.0001502;45.0112;3.651;355.6731;4.4103;6.5267E-5;3.9E-7;0;Orbcomm
14.32817609;0.0001466;45.0112;2.3399;357.2202;2.8636;6.7158E-5;4.4E-7;0;Orbcomm
14.32818015;0.000139;45.0112;358.7346;1.3904;358.6946;7.1544E-5;5.6E-7;0;Orbcomm
14.32818206;0.0001361;45.0112;357.4236;2.7888;357.2966;7.4176E-5;6.3E-7;0;Orbcomm
14.32818788;0.0001261;45.0111;352.5073;9.0871;350.9998;8.1465E-5;8.3E-7;0;Orbcomm
14.32818911;0.0001231;45.0111;351.5241;10.8443;349.2429;8.2897E-5;8.7E-7;0;Orbcomm
14.32819239;0.0001161;45.011;347.9188;15.6692;344.419;8.4123E-5;9.1E-7;0;Orbcomm
14.32819609;0.0001076;45.0109;343.658;22.5711;337.5183;8.3784E-5;9.0E-7;0;Orbcomm
14.32819634;0.0001068;45.0109;343.3302;23.1298;336.9596;8.3953E-5;9.0E-7;0;Orbcomm
14.32819992;9.88E-5;45.0108;338.7416;31.2465;328.844;8.0967E-5;8.2E-7;0;Orbcomm
14.32820303;9.22E-5;45.0107;334.8084;38.7082;321.3831;7.6288E-5;6.9E-7;0;Orbcomm
14.32820453;9.04E-5;45.0106;333.1697;42.0216;318.0699;7.5989E-5;6.8E-7;0;Orbcomm
14.32820807;8.43E-5;45.0105;329.2364;50.5257;309.5663;7.3656E-5;6.2E-7;0;Orbcomm
14.32820862;8.4E-5;45.0105;328.5809;51.6401;308.452;7.334E-5;6.1E-7;0;Orbcomm
14.32821296;7.93E-5;45.0105;324.6476;61.4481;298.6445;7.5541E-5;6.7E-7;0;Orbcomm
14.32821323;7.9E-5;45.0105;324.3199;62.3697;297.7229;7.5384E-5;6.7E-7;0;Orbcomm
14.32821586;7.66E-5;45.0105;322.0255;67.6997;292.393;7.7577E-5;7.3E-7;0;Orbcomm
14.32821673;7.53E-5;45.0104;319.7311;73.8109;286.282;7.0846E-5;5.4E-7;0;Orbcomm
14.32821709;7.53E-5;45.0104;319.4033;74.4947;285.5982;7.1237E-5;5.5E-7;0;Orbcomm
14.32822067;7.35E-5;45.0104;315.1423;86.7447;273.3484;7.0674E-5;5.4E-7;0;Orbcomm
14.32822599;7.32E-5;45.0104;311.209;97.5926;262.5004;8.4425E-5;9.2E-7;0;Orbcomm
14.32822658;7.58E-5;45.0103;305.9648;112.1317;247.9609;6.6712E-5;4.3E-7;0;Orbcomm
14.32822838;8.01E-5;45.0102;301.0484;123.9729;236.1193;5.8838E-5;2.1E-7;0;Orbcomm
14.32822855;8.04E-5;45.0102;300.7207;124.8847;235.2075;5.8211E-5;2.0E-7;0;Orbcomm
14.32823034;8.67E-5;45.0101;296.1319;135.9844;224.1071;4.9719E-5;-4.0E-8;0;Orbcomm
14.32823142;8.93E-5;45.0101;293.8375;140.9858;219.1052;4.6861E-5;-1.2E-7;0;Orbcomm
14.32823167;9.33E-5;45.0101;291.5433;144.7027;215.3881;3.9821E-5;-3.1E-7;0;Orbcomm
14.32823296;9.71E-5;45.0101;288.9211;149.71;210.3802;3.7507E-5;-3.7E-7;0;Orbcomm
14.32823364;0.0001009;45.01;286.9545;152.9232;207.1667;3.4495E-5;-4.6E-7;0;Orbcomm
14.32823548;0.0001068;45.01;283.6768;158.7405;201.3486;3.3757E-5;-4.8E-7;0;Orbcomm
14.32823606;0.0001094;45.01;282.3658;160.7949;199.2938;3.3958E-5;-4.7E-7;0;Orbcomm
14.3282384;0.0001184;45.01;277.4493;168.3737;191.7136;3.5463E-5;-4.3E-7;0;Orbcomm
14.3282384;0.0001184;45.01;277.4493;168.3737;191.7136;3.5463E-5;-4.3E-7;0;Orbcomm
14.32824011;0.0001252;45.01;274.1716;173.3104;186.7759;3.8394E-5;-3.5E-7;0;Orbcomm
14.32824098;0.0001272;45.01;272.8606;174.7723;185.3137;4.1501E-5;-2.6E-7;0;Orbcomm
14.32824201;0.0001326;45.01;270.2384;178.4535;181.6315;4.2805E-5;-2.3E-7;0;Orbcomm
14.32824315;0.0001357;45.0099;268.2719;180.4309;179.6537;4.5955E-5;-1.4E-7;0;Orbcomm
14.32824439;0.000142;45.0099;265.3219;184.1327;175.9508;4.6432E-5;-1.3E-7;0;Orbcomm
14.32824514;0.0001447;45.0099;263.6832;185.7477;174.3353;4.766E-5;-9.0E-8;0;Orbcomm
14.3282473;0.0001532;45.0098;259.0946;190.5961;169.4853;4.6539E-5;-1.3E-7;0;Orbcomm
14.32824953;0.0001623;45.0098;254.5059;195.3289;164.7508;4.245E-5;-2.4E-7;0;Orbcomm
14.32825096;0.0001687;45.0097;251.2283;198.6489;161.4296;3.737E-5;-3.8E-7;0;Orbcomm
14.3282516;0.0001718;45.0097;249.5895;200.4167;159.661;3.5087E-5;-4.4E-7;0;Orbcomm
14.32825396;0.000181;45.0095;245.0009;204.8744;155.2015;3.1948E-5;-5.3E-7;0;Orbcomm
14.32825712;0.0001892;45.0095;240.74;208.7841;151.2901;3.7743E-5;-3.7E-7;0;Orbcomm
